NORAD_CAT_ID,OBJECT_NAME,OBJECT_TYPE,EPOCH,MEAN_MOTION,ECCENTRICITY,INCLINATION,RA_OF_ASC_NODE,ARG_OF_PERICENTER,MEAN_ANOMALY,BSTAR,MEAN_MOTION_DOT,MEAN_MOTION_DDOT,TLE_LINE0,TLE_LINE1,TLE_LINE2,SEMIMAJOR_AXIS,PERIOD,APOGEE,PERIGEE,DECAYED
52360.0,STARLINK-3824,PAYLOAD,2024-03-03 22:16:40,15.08847169,0.0001481,53.2163,252.0769,103.712,256.4037,0.00010043,1.311e-05,0.0,0 STARLINK-3824,1 52360U 22045AF  24063.92824535  .00001311  00000-0  10043-3 0  9999,2 52360  53.2163 252.0769 0001481 103.7120 256.4037 15.08847169104839,6917.858,95.437,540.748,538.699,0.0
52360.0,STARLINK-3824,PAYLOAD,2024-03-04 12:35:08,15.08845457,0.000157,53.2168,249.4002,96.2602,263.8569,9.4165e-05,1.211e-05,0.0,0 STARLINK-3824,1 52360U 22045AF  24064.52440571  .00001211  00000-0  94165-4 0  9997,2 52360  53.2168 249.4002 0001570  96.2602 263.8569 15.08845457104924,6917.864,95.437,540.815,538.643,0.0
52360.0,STARLINK-3824,PAYLOAD,2024-03-04 18:56:40,15.08850617,0.0001482,53.2164,248.2117,78.7665,281.3494,9.6927e-05,1.255e-05,0.0,0 STARLINK-3824,1 52360U 22045AF  24064.78936210  .00001255  00000-0  96927-4 0  9991,2 52360  53.2164 248.2117 0001482  78.7665 281.3494 15.08850617104960,6917.848,95.437,540.738,538.688,0.0
52360.0,STARLINK-3824,PAYLOAD,2024-03-05 12:25:55,15.08842436,0.0001377,53.2167,244.9427,91.0345,269.0805,5.9379e-05,6.57e-06,0.0,0 STARLINK-3824,1 52360U 22045AF  24065.51800546  .00000657  00000-0  59379-4 0  9990,2 52360  53.2167 244.9427 0001377  91.0345 269.0805 15.08842436105078,6917.873,95.437,540.691,538.785,0.0
52360.0,STARLINK-3824,PAYLOAD,2024-03-05 18:47:27,15.08853441,0.0001454,53.2177,243.7543,91.2977,268.8182,0.0001522,2.136e-05,0.0,0 STARLINK-3824,1 52360U 22045AF  24065.78295568  .00002136  00000-0  15220-3 0  9991,2 52360  53.2177 243.7543 0001454  91.2977 268.8182 15.08853441105112,6917.839,95.437,540.71,538.698,0.0
52360.0,STARLINK-3824,PAYLOAD,2024-03-06 12:16:42,15.08827237,0.0001585,53.2175,240.4839,94.1858,265.9315,-0.00017029,-2.996e-05,0.0,0 STARLINK-3824,1 52360U 22045AF  24066.51160687 -.00002996  00000-0 -17029-3 0  9991,2 52360  53.2175 240.4839 0001585  94.1858 265.9315 15.08827237105229,6917.919,95.438,540.881,538.688,0.0
52360.0,STARLINK-3824,PAYLOAD,2024-03-07 04:10:34,15.08820259,0.0001414,53.2174,237.5094,90.6907,269.4247,-0.00016248,-2.871e-05,0.0,0 STARLINK-3824,1 52360U 22045AF  24067.17401509 -.00002871  00000-0 -16248-3 0  9999,2 52360  53.2174 237.5094 0001414  90.6907 269.4247 15.08820259105326,6917.941,95.439,540.784,538.828,0.0
52360.0,STARLINK-3824,PAYLOAD,2024-03-08 04:01:22,15.0883185,0.0001522,53.2178,233.0483,90.5168,269.5999,-0.00014619,-2.613e-05,0.0,0 STARLINK-3824,1 52360U 22045AF  24068.16761661 -.00002613  00000-0 -14619-3 0  9991,2 52360  53.2178 233.0483 0001522  90.5168 269.5999 15.08831850105471,6917.905,95.438,540.823,538.717,0.0
52360.0,STARLINK-3824,PAYLOAD,2024-03-08 10:22:54,15.08806648,0.0001105,53.2169,231.8578,91.253,268.8589,0.00028843,4.301e-05,0.0,0 STARLINK-3824,1 52360U 22045AF  24068.43258097  .00004301  00000-0  28843-3 0  9993,2 52360  53.2169 231.8578 0001105  91.2530 268.8589 15.08806648105519,6917.982,95.44,540.612,539.083,0.0
52360.0,STARLINK-3824,PAYLOAD,2024-03-09 03:52:09,15.08828283,0.0001521,53.2172,228.5876,89.1039,271.0128,0.0003085,4.624e-05,0.0,0 STARLINK-3824,1 52360U 22045AF  24069.16121954  .00004624  00000-0  30850-3 0  9994,2 52360  53.2172 228.5876 0001521  89.1039 271.0128 15.08828283105625,6917.916,95.438,540.833,538.729,0.0
52360.0,STARLINK-3824,PAYLOAD,2024-03-09 10:13:42,15.08831917,0.0001476,53.2167,227.3981,89.9111,270.205,0.00036835,5.578e-05,0.0,0 STARLINK-3824,1 52360U 22045AF  24069.42618150  .00005578  00000-0  36835-3 0  9990,2 52360  53.2167 227.3981 0001476  89.9111 270.2050 15.08831917105668,6917.905,95.438,540.791,538.749,0.0
52360.0,STARLINK-3824,PAYLOAD,2024-03-09 16:35:14,15.08841103,0.0001411,53.2151,226.2087,88.8866,271.2288,0.00047449,7.272e-05,0.0,0 STARLINK-3824,1 52360U 22045AF  24069.69114229  .00007272  00000-0  47449-3 0  9993,2 52360  53.2151 226.2087 0001411  88.8866 271.2288 15.08841103105707,6917.877,95.437,540.718,538.766,0.0
52360.0,STARLINK-3824,PAYLOAD,2024-03-10 03:42:56,15.08850796,0.000118,53.2147,224.1261,95.2751,264.8375,0.00040568,6.176e-05,0.0,0 STARLINK-3824,1 52360U 22045AF  24070.15481785  .00006176  00000-0  40568-3 0  9997,2 52360  53.2147 224.1261 0001180  95.2751 264.8375 15.08850796105771,6917.847,95.437,540.529,538.896,0.0
52360.0,STARLINK-3824,PAYLOAD,2024-03-10 19:36:47,15.08845819,0.0001773,53.2115,221.1507,98.9833,261.136,0.00015047,2.108e-05,0.0,0 STARLINK-3824,1 52360U 22045AF  24070.81721839  .00002108  00000-0  15047-3 0  9992,2 52360  53.2115 221.1507 0001773  98.9833 261.1360 15.08845819105870,6917.863,95.437,540.954,538.501,0.0
52360.0,STARLINK-3824,PAYLOAD,2024-03-11 03:33:43,15.08840798,0.0001694,53.2114,219.6638,97.3665,262.7519,4.3046e-05,3.97e-06,0.0,0 STARLINK-3824,1 52360U 22045AF  24071.14841995  .00000397  00000-0  43046-4 0  9994,2 52360  53.2114 219.6638 0001694  97.3665 262.7519 15.08840798105924,6917.878,95.438,540.915,538.571,0.0
52360.0,STARLINK-3824,PAYLOAD,2024-03-12 09:46:03,15.08839909,0.0001405,53.2133,214.0151,83.9806,276.1346,-3.7556e-07,-2.94e-06,0.0,0 STARLINK-3824,1 52360U 22045AF  24072.40697919 -.00000294  00000-0 -37556-6 0  9998,2 52360  53.2133 214.0151 0001405  83.9806 276.1346 15.08839909106113,6917.881,95.438,540.718,538.774,0.0
52360.0,STARLINK-3824,PAYLOAD,2024-03-12 16:07:34,15.08849561,0.0001257,53.2122,212.8252,85.6762,274.4374,-0.00013819,-2.487e-05,0.0,0 STARLINK-3824,1 52360U 22045AF  24072.67193252 -.00002487  00000-0 -13819-3 0  9997,2 52360  53.2122 212.8252 0001257  85.6762 274.4374 15.08849561106155,6917.851,95.437,540.586,538.847,0.0
52360.0,STARLINK-3824,PAYLOAD,2024-03-13 09:36:50,15.0883813,0.0001454,53.2115,209.5548,89.0633,271.0526,0.00010743,1.422e-05,0.0,0 STARLINK-3824,1 52360U 22045AF  24073.40058207  .00001422  00000-0  10743-3 0  9998,2 52360  53.2115 209.5548 0001454  89.0633 271.0526 15.08838130106266,6917.886,95.438,540.757,538.745,0.0
52360.0,STARLINK-3824,PAYLOAD,2024-03-13 15:58:22,15.08845133,0.0001415,53.2124,208.3659,89.4399,270.6756,0.00025842,3.828e-05,0.0,0 STARLINK-3824,1 52360U 22045AF  24073.66553907  .00003828  00000-0  25842-3 0  9991,2 52360  53.2124 208.3659 0001415  89.4399 270.6756 15.08845133106302,6917.865,95.437,540.709,538.751,0.0
52360.0,STARLINK-3824,PAYLOAD,2024-03-14 12:38:23,15.08840933,0.0001118,53.2149,204.5004,79.5268,280.585,6.9693e-05,8.22e-06,0.0,0 STARLINK-3824,1 52360U 22045AF  24074.52665993  .00000822  00000-0  69693-4 0  9990,2 52360  53.2149 204.5004 0001118  79.5268 280.5850 15.08840933106438,6917.878,95.437,540.516,538.969,0.0
52360.0,STARLINK-3824,PAYLOAD,2024-03-15 12:29:10,15.08832351,0.0001176,53.2149,200.0396,79.0177,281.0948,0.0001898,2.733e-05,0.0,0 STARLINK-3824,1 52360U 22045AF  24075.52026607  .00002733  00000-0  18980-3 0  9999,2 52360  53.2149 200.0396 0001176  79.0177 281.0948 15.08832351106586,6917.904,95.438,540.582,538.955,0.0
52360.0,STARLINK-3824,PAYLOAD,2024-03-15 17:15:19,15.08840417,0.0001178,53.2154,199.1479,78.3312,281.7812,5.0756e-06,-2.07e-06,0.0,0 STARLINK-3824,1 52360U 22045AF  24075.71898111 -.00000207  00000-0  50756-5 0  9991,2 52360  53.2154 199.1479 0001178  78.3312 281.7812 15.08840417106610,6917.879,95.438,540.559,538.929,0.0
52360.0,STARLINK-3824,PAYLOAD,2024-03-16 12:19:58,15.08832692,0.0001267,53.2165,195.5823,68.1892,291.9235,5.1887e-05,5.38e-06,0.0,0 STARLINK-3824,1 52360U 22045AF  24076.51387142  .00000538  00000-0  51887-4 0  9998,2 52360  53.2165 195.5823 0001267  68.1892 291.9235 15.08832692106735,6917.903,95.438,540.644,538.891,0.0
52360.0,STARLINK-3824,PAYLOAD,2024-03-16 13:55:21,15.08821917,0.0001528,53.2171,195.2854,72.5323,287.5836,0.00022226,3.249e-05,0.0,0 STARLINK-3824,1 52360U 22045AF  24076.58011357  .00003249  00000-0  22226-3 0  9993,2 52360  53.2171 195.2854 0001528  72.5323 287.5836 15.08821917106748,6917.936,95.439,540.858,538.744,0.0
52360.0,STARLINK-3824,PAYLOAD,2024-03-16 15:30:45,15.087962,0.0001745,53.2178,194.9883,73.3995,286.7188,0.00064349,9.956e-05,0.0,0 STARLINK-3824,1 52360U 22045AF  24076.64635894  .00009956  00000-0  64349-3 0  9991,2 52360  53.2178 194.9883 0001745  73.3995 286.7188 15.08796200106756,6918.014,95.44,541.086,538.672,0.0
52360.0,STARLINK-3824,PAYLOAD,2024-03-17 12:10:45,15.08841599,0.0001683,53.2177,191.1226,64.095,296.0215,0.00012597,1.717e-05,0.0,0 STARLINK-3824,1 52360U 22045AF  24077.50746609  .00001717  00000-0  12597-3 0  9999,2 52360  53.2177 191.1226 0001683  64.0950 296.0215 15.08841599106885,6917.876,95.437,540.905,538.576,0.0
52360.0,STARLINK-3824,PAYLOAD,2024-03-17 13:46:08,15.08842484,0.000173,53.2178,190.8254,63.2611,296.8559,0.00013399,1.845e-05,0.0,0 STARLINK-3824,1 52360U 22045AF  24077.57370562  .00001845  00000-0  13399-3 0  9990,2 52360  53.2178 190.8254 0001730  63.2611 296.8559 15.08842484106895,6917.873,95.437,540.935,538.541,0.0
52360.0,STARLINK-3824,PAYLOAD,2024-03-18 12:01:32,15.08842222,0.0001679,53.2183,186.6626,65.6809,294.4359,7.9593e-05,9.79e-06,0.0,0 STARLINK-3824,1 52360U 22045AF  24078.50106757  .00000979  00000-0  79593-4 0  9993,2 52360  53.2183 186.6626 0001679  65.6809 294.4359 15.08842222107033,6917.874,95.437,540.9,538.577,0.0
52360.0,STARLINK-3824,PAYLOAD,2024-03-18 16:47:41,15.08847661,0.0001821,53.2172,185.7672,69.8586,290.2602,0.00010181,1.333e-05,0.0,0 STARLINK-3824,1 52360U 22045AF  24078.69978287  .00001333  00000-0  10181-3 0  9990,2 52360  53.2172 185.7672 0001821  69.8586 290.2602 15.08847661107069,6917.857,95.437,540.982,538.462,0.0
52360.0,STARLINK-3824,PAYLOAD,2024-03-19 11:52:18,15.08850938,0.0001828,53.2176,182.1933,115.1509,244.9673,-3.1437e-06,-3.38e-06,0.0,0 STARLINK-3824,1 52360U 22045AF  24079.49465988 -.00000338  00000-0 -31437-5 0  9993,2 52360  53.2176 182.1933 0001828 115.1509 244.9673 15.08850938107189,6917.847,95.437,540.977,538.447,0.0
